NORAD_CAT_ID,OBJECT_NAME,OBJECT_TYPE,EPOCH,MEAN_MOTION,ECCENTRICITY,INCLINATION,RA_OF_ASC_NODE,ARG_OF_PERICENTER,MEAN_ANOMALY,BSTAR,MEAN_MOTION_DOT,MEAN_MOTION_DDOT,TLE_LINE0,TLE_LINE1,TLE_LINE2,SEMIMAJOR_AXIS,PERIOD,APOGEE,PERIGEE,DECAYED
51135.0,STARLINK-3363,PAYLOAD,2022-12-04 11:11:11,15.08841007,0.0003256999999999,53.2158,246.7423,35.9324,324.1887,-8.9512e-05,-1.713e-05,0.0,0 STARLINK-3363,1 51135U 22005AH  22338.46610570 -.00001713  00000-0 -89512-4 0  9994,2 51135  53.2158 246.7423 0003257  35.9324 324.1887 15.08841007 48898,6917.877,95.437,541.995,537.489,0.0
51135.0,STARLINK-3363,PAYLOAD,2022-12-05 11:01:57,15.08851776,0.0002528,53.2159,242.2803,28.5826,331.5304,2.6111e-05,1.27e-06,0.0,0 STARLINK-3363,1 51135U 22005AH  22339.45969233  .00000127  00000-0  26111-4 0  9999,2 51135  53.2159 242.2803 0002528  28.5826 331.5304 15.08851776 50160,6917.844,95.437,541.4580000000002,537.961,0.0
51135.0,STARLINK-3363,PAYLOAD,2022-12-05 17:23:30,15.08848961,0.0003158,53.2156,241.0911,38.7199,321.4019,8.015e-05,9.87e-06,0.0,0 STARLINK-3363,1 51135U 22005AH  22339.72465468  .00000987  00000-0  80150-4 0  9997,2 51135  53.2156 241.0911 0003158  38.7199 321.4019 15.08848961 49082,6917.853,95.437,541.903,537.533,0.0
51135.0,STARLINK-3363,PAYLOAD,2022-12-06 02:55:48,15.08844598,0.0003226,53.2148,239.3089,32.0831,328.0357,7.6415e-05,9.28e-06,0.0,0 STARLINK-3363,1 51135U 22005AH  22340.12209458  .00000928  00000-0  76415-4 0  9992,2 51135  53.2148 239.3089 0003226  32.0831 328.0357 15.08844598 50267,6917.866,95.437,541.9630000000002,537.5,0.0
51135.0,STARLINK-3363,PAYLOAD,2022-12-06 20:25:05,15.08824501,0.0002929,53.2167,236.0346,39.6478,320.4728,-0.00011503,-2.118e-05,0.0,0 STARLINK-3363,1 51135U 22005AH  22340.85075486 -.00002118  00000-0 -11503-3 0  9995,2 51135  53.2167 236.0346 0002929  39.6478 320.4728 15.08824501 50379,6917.928000000001,95.439,541.819,537.7669999999998,0.0
51135.0,STARLINK-3363,PAYLOAD,2022-12-07 18:40:30,15.08819132,0.0002666,53.2161,231.8714,33.0987,327.0171,-6.5792e-05,-1.335e-05,0.0,0 STARLINK-3363,1 51135U 22005AH  22341.77812514 -.00001335  00000-0 -65792-4 0  9998,2 51135  53.2161 231.8714 0002666  33.0987 327.0171 15.08819132 49395,6917.944,95.439,541.653,537.965,0.0
51135.0,STARLINK-3363,PAYLOAD,2022-12-07 23:26:38,15.08840911,0.0003063,53.2147,230.981,32.6416,327.4765,-5.3531e-06,-3.74e-06,0.0,0 STARLINK-3363,1 51135U 22005AH  22341.97682974 -.00000374  00000-0 -53531-5 0  9996,2 51135  53.2147 230.9810 0003063  32.6416 327.4765 15.08840911 50541,6917.878000000002,95.437,541.862,537.624,0.0
51135.0,STARLINK-3363,PAYLOAD,2022-12-09 00:52:47,15.08845756,0.0003121,53.215,226.2237,33.873000000000005,326.2461,0.00039254,5.966e-05,0.0,0 STARLINK-3363,1 51135U 22005AH  22343.03665869  .00005966  00000-0  39254-3 0  9993,2 51135  53.2150 226.2237 0003121  33.8730 326.2461 15.08845756 50703,6917.863,95.437,541.887,537.569,0.0
51135.0,STARLINK-3363,PAYLOAD,2022-12-09 02:28:10,15.08853007,0.000316,53.2139,225.9261,33.3483,326.7708,0.00049517,7.604e-05,0.0,0 STARLINK-3363,1 51135U 22005AH  22343.10290477  .00007604  00000-0  49517-3 0  9994,2 51135  53.2139 225.9261 0003160  33.3483 326.7708 15.08853007 49598,6917.840999999999,95.437,541.8919999999998,537.52,0.0
51135.0,STARLINK-3363,PAYLOAD,2022-12-09 19:57:26,15.08829955,0.0002582,53.2138,222.6547,38.3219,321.7956,-0.00017181,-3.021e-05,0.0,0 STARLINK-3363,1 51135U 22005AH  22343.83155737 -.00003021  00000-0 -17181-3 0  9996,2 51135  53.2138 222.6547 0002582  38.3219 321.7956 15.08829955 50820,6917.911,95.438,541.562,537.99,0.0
51135.0,STARLINK-3363,PAYLOAD,2022-12-09 21:32:50,15.08821435,0.000277,53.2141,222.3569,33.1819,326.9346,-0.00026991,-4.58e-05,0.0,0 STARLINK-3363,1 51135U 22005AH  22343.89780117 -.00004580  00000-0 -26991-3 0  9998,2 51135  53.2141 222.3569 0002770  33.1819 326.9346 15.08821435 50839,6917.937,95.439,541.7180000000002,537.886,0.0
51135.0,STARLINK-3363,PAYLOAD,2022-12-10 00:43:36,15.08811949,0.0003044,53.2138,221.7622,30.0426,330.074,-0.00042421,-7.029e-05,0.0,0 STARLINK-3363,1 51135U 22005AH  22344.03028760 -.00007029  00000-0 -42421-3 0  9991,2 51135  53.2138 221.7622 0003044  30.0426 330.0740 15.08811949 49733,6917.965999999999,95.439,541.937,537.725,0.0
51135.0,STARLINK-3363,PAYLOAD,2022-12-10 18:12:51,15.08818945,0.0003009,53.2139,218.4921,34.1764,325.9421,-0.00016399,-2.896e-05,0.0,0 STARLINK-3363,1 51135U 22005AH  22344.75892817 -.00002896  00000-0 -16399-3 0  9994,2 51135  53.2139 218.4921 0003009  34.1764 325.9421 15.08818945 50969,6917.945,95.439,541.891,537.7280000000002,0.0
51135.0,STARLINK-3363,PAYLOAD,2022-12-10 19:48:14,15.08819752,0.0002978,53.2139,218.1948,35.1457,324.9731,-0.00011735,-2.155e-05,0.0,0 STARLINK-3363,1 51135U 22005AH  22344.82516906 -.00002155  00000-0 -11735-3 0  9991,2 51135  53.2139 218.1948 0002978  35.1457 324.9731 15.08819752 49855,6917.941999999999,95.439,541.867,537.747,0.0
51135.0,STARLINK-3363,PAYLOAD,2022-12-11 03:45:10,15.0882486,0.0003049,53.2134,216.7078,31.9685,328.1491,0.00012828,1.753e-05,0.0,0 STARLINK-3363,1 51135U 22005AH  22345.15637294  .00001753  00000-0  12828-3 0  9997,2 51135  53.2134 216.7078 0003049  31.9685 328.1491 15.08824860 49906,6917.927,95.439,541.901,537.682,0.0
51135.0,STARLINK-3363,PAYLOAD,2022-12-11 19:39:02,15.08835268,0.0003016,53.2132,213.7339,29.9081,330.2083,0.00074685,0.00011617,0.0,0 STARLINK-3363,1 51135U 22005AH  22345.81878116  .00011617  00000-0  74685-3 0  9999,2 51135  53.2132 213.7339 0003016  29.9081 330.2083 15.08835268 51124,6917.895,95.438,541.846,537.673,0.0
51135.0,STARLINK-3363,PAYLOAD,2022-12-11 21:14:25,15.08842859,0.0002982,53.213,213.4367,30.0827,330.0336,0.00063676,9.861e-05,0.0,0 STARLINK-3363,1 51135U 22005AH  22345.88501860  .00009861  00000-0  63676-3 0  9991,2 51135  53.2130 213.4367 0002982  30.0827 330.0336 15.08842859 50012,6917.871999999999,95.437,541.8,537.674,0.0
51135.0,STARLINK-3363,PAYLOAD,2022-12-12 02:00:34,15.08851927,0.0002961,53.2127,212.5445,29.9402,330.1759,0.00081856,0.00012768,0.0,0 STARLINK-3363,1 51135U 22005AH  22346.08373704  .00012768  00000-0  81856-3 0  9998,2 51135  53.2127 212.5445 0002961  29.9402 330.1759 15.08851927 51161,6917.844,95.437,541.757,537.661,0.0
51135.0,STARLINK-3363,PAYLOAD,2022-12-12 17:54:25,15.08857538,0.0003024,53.2123,209.5707,31.5666,328.5507,0.00049003,7.523e-05,0.0,0 STARLINK-3363,1 51135U 22005AH  22346.74613146  .00007523  00000-0  49003-3 0  9999,2 51135  53.2123 209.5707 0003024  31.5666 328.5507 15.08857538 51263,6917.8269999999975,95.436,541.784,537.6,0.0
51135.0,STARLINK-3363,PAYLOAD,2022-12-12 21:05:11,15.08859612,0.0003032,53.2124,208.9759,31.8163,328.3012,0.00048485,7.441e-05,0.0,0 STARLINK-3363,1 51135U 22005AH  22346.87860961  .00007441  00000-0  48485-3 0  9994,2 51135  53.2124 208.9759 0003032  31.8163 328.3012 15.08859612 50160,6917.82,95.436,541.783,537.5880000000002,0.0
51135.0,STARLINK-3363,PAYLOAD,2022-12-13 08:12:53,15.0885245,0.0003052,53.2124,206.8942,32.5023,327.6157,0.00023668,3.482e-05,0.0,0 STARLINK-3363,1 51135U 22005AH  22347.34228826  .00003482  00000-0  23668-3 0  9992,2 51135  53.2124 206.8942 0003052  32.5023 327.6157 15.08852450 51353,6917.842,95.437,541.819,537.596,0.0
51135.0,STARLINK-3363,PAYLOAD,2022-12-14 00:06:45,15.08844513,0.0003028,53.2126,203.9201,34.852,325.267,8.892399999999999e-05,1.127e-05,0.0,0 STARLINK-3363,1 51135U 22005AH  22348.00468805  .00001127  00000-0  88924-4 0  9990,2 51135  53.2126 203.9201 0003028  34.8520 325.2670 15.08844513 51457,6917.8669999999975,95.437,541.826,537.637,0.0
51135.0,STARLINK-3363,PAYLOAD,2022-12-14 20:46:45,15.08837025,0.0002927,53.2128,200.0528,34.3957,325.7224,-6.848399999999999e-05,-1.378e-05,0.0,0 STARLINK-3363,1 51135U 22005AH  22348.86580850 -.00001378  00000-0 -68484-4 0  9998,2 51135  53.2128 200.0528 0002927  34.3957 325.7224 15.08837025 51589,6917.889,95.438,541.779,537.73,0.0
51135.0,STARLINK-3363,PAYLOAD,2022-12-15 01:32:55,15.08841641,0.0003068,53.2136,199.1623,33.3382,326.7802,1.1924e-05,-9.9e-07,0.0,0 STARLINK-3363,1 51135U 22005AH  22349.06452759 -.00000099  00000-0  11924-4 0  9992,2 51135  53.2136 199.1623 0003068  33.3382 326.7802 15.08841641 50491,6917.875,95.437,541.863,537.618,0.0
51135.0,STARLINK-3363,PAYLOAD,2022-12-15 20:37:32,15.08853129,0.000361,53.2135,195.5938,37.3262,322.7981,3.984300000000001e-05,3.45e-06,0.0,0 STARLINK-3363,1 51135U 22005AH  22349.85940197  .00000345  00000-0  39843-4 0  9990,2 51135  53.2135 195.5938 0003610  37.3262 322.7981 15.08853129 50615,6917.84,95.437,542.203,537.2080000000002,0.0
51135.0,STARLINK-3363,PAYLOAD,2022-12-15 22:12:55,15.08852349,0.0003247,53.2134,195.2964,33.9086,326.2113,0.00020841,3.031e-05,0.0,0 STARLINK-3363,1 51135U 22005AH  22349.92564172  .00003031  00000-0  20841-3 0  9995,2 51135  53.2134 195.2964 0003247  33.9086 326.2113 15.08852349 51746,6917.843000000003,95.437,541.9540000000002,537.461,0.0
51135.0,STARLINK-3363,PAYLOAD,2022-12-15 23:48:18,15.08845556,0.0003363,53.2136,194.9985,33.0648,327.0554,0.00014862,2.078e-05,0.0,0 STARLINK-3363,1 51135U 22005AH  22349.99188470  .00002078  00000-0  14862-3 0  9991,2 51135  53.2136 194.9985 0003363  33.0648 327.0554 15.08845556 51752,6917.863,95.437,542.055,537.4019999999998,0.0
51135.0,STARLINK-3363,PAYLOAD,2022-12-16 17:17:33,15.08837256,0.000319,53.2135,191.7279,34.0781,326.0415,9.7557e-05,1.264e-05,0.0,0 STARLINK-3363,1 51135U 22005AH  22350.72052908  .00001264  00000-0  97557-4 0  9999,2 51135  53.2135 191.7279 0003190  34.0781 326.0415 15.08837256 51864,6917.889,95.438,541.961,537.547,0.0
51135.0,STARLINK-3363,PAYLOAD,2022-12-16 20:28:19,15.0883836,0.0003188,53.2135,191.1333,35.4874,324.633,0.00010764,1.425e-05,0.0,0 STARLINK-3363,1 51135U 22005AH  22350.85300901  .00001425  00000-0  10764-3 0  9995,2 51135  53.2135 191.1333 0003188  35.4874 324.6330 15.08838360 50769,6917.885,95.438,541.956,537.545,0.0
